NUSAT-1 (FRESCO)        
1 41557U 16033B   21321.58622030  .00003102  00000+0  10759-3 0  9990
2 41557  97.3933  54.7498 0013749  55.8041  68.2770 15.30481754304940
BEESAT-4                
1 41619U 16040W   21321.11663336  .00003633  00000+0  14127-3 0  9992
2 41619  97.2509  12.8550 0011354 144.1676 216.0327 15.26598777288296
CAS-2T & KS-1Q          
1 41847U 16066G   21321.18201061  .00000240  00000+0  45330-4 0  9995
2 41847  98.5828  20.8029 0365880 124.3056 239.3338 14.38285225263831
NAYIF-1 (EO-88)         
1 42017U 17008BX  21321.14320999  .00004179  00000+0  14917-3 0  9991
2 42017  97.3002  25.9689 0004165 291.7322  68.3475 15.29404017264589
ZHUHAI-1 02 (CAS-4B)    
1 42759U 17034B   21321.59905825  .00000931  00000+0  68703-4 0  9994
2 42759  43.0178  58.9654 0007489  32.0127  99.0496 15.10544415244302
ZHUHAI-1 01 (CAS-4A)    
1 42761U 17034D   21321.58120094  .00000835  00000+0  62863-4 0  9997
2 42761  43.0180  58.0045 0007964  34.2812  96.9507 15.10630364244304
MAX VALIER SAT          
1 42778U 17036P   21321.36474652  .00002318  00000+0  97528-4 0  9999
2 42778  97.2371   4.8612 0011533   5.6637 354.4729 15.24301703244572
RADFXSAT (FOX-1B)       
1 43017U 17073E   21321.29453060  .00000865  00000+0  71083-4 0  9992
2 43017  97.6925 219.1239 0253981 161.1897 199.8914 14.79949436215727
FOX-1D (AO-92)          
1 43137U 18004AC  21321.15848666  .00002668  00000+0  10626-3 0  9993
2 43137  97.3942  33.5786 0009473  41.4362 318.7593 15.26071310213940
DIWATA-2B               
1 43678U 18084H   21321.18321539  .00000354  00000+0  40830-4 0  9990
2 43678  97.9432  87.4375 0008326 266.9326  93.0970 14.91833623166204
ES'HAIL 2               
1 43700U 18090A   21321.30209595  .00000153  00000+0  00000+0 0  9991
2 43700   0.0126 279.4287 0002465 337.2621 294.4655  1.00272933 10907
FOX-1CLIFF (AO-95)      
1 43770U 18099N   21321.14429285  .00001045  00000+0  99306-4 0  9992
2 43770  97.6499  27.8438 0012862 266.3081  93.6669 14.95545699161277
ITASAT 1                
1 43786U 18099AE  21321.43613146  .00000092  00000+0  13350-4 0  9998
2 43786  97.6521  28.9131 0013688 258.0401 101.9286 14.95810044161359
JY1SAT (JO-97)          
1 43803U 18099AX  21321.17218711  .00000241  00000+0  26498-4 0  9991
2 43803  97.6482  28.3938 0013680 258.5159 101.4527 14.96102446161322
UWE-4                   
1 43880U 18111E   21321.25343767  .00000254  00000+0  26979-4 0  9998
2 43880  97.6770 226.2956 0011392 318.2599  41.7752 14.97124343157946
NEXUS (FO-99)           
1 43937U 19003F   21321.15798403  .00003406  00000+0  13144-3 0  9993
2 43937  97.1595 358.1544 0022357 186.0999 173.9972 15.26710630157557
PSAT2 (NO-104)          
1 44354U 19036R   21320.94255656  .00027331  00000+0  33350-3 0  9991
2 44354  28.5248 186.2369 0300715 136.0118 226.4824 15.20141765132143
BRICSAT2 (NO-103)       
1 44355U 19036S   21321.08839703  .00052912 -59195-5  43946-3 0  9990
2 44355  28.5248 109.7036 0207124 260.8475  96.8640 15.45212373132929
JAISAT-1                
1 44419U 19038F   21321.37265698  .00002341  00000+0  13039-3 0  9996
2 44419  97.6088 285.7308 0021760 140.9714 219.3092 15.14443794130931
DUCHIFAT-3              
1 44854U 19089C   21321.26973837  .00000982  00000+0  84180-4 0  9999
2 44854  36.9652 276.7470 0009207 295.7504  64.2292 14.99796489106054
CAS-6 (TO-108)          
1 44881U 19093C   21321.24574763  .00000119  00000+0  21962-4 0  9998
2 44881  97.9138  38.3240 0015657 151.4693 208.7381 14.81510187103354
RS-44 & BREEZE-KM R/B   
1 44909U 19096E   21321.23960577  .00000022  00000+0  34578-4 0  9993
2 44909  82.5243  11.2922 0218519  95.9136 266.6916 12.79711219 88369
ORBITAL FACTORY 2 (OF-2)
1 45113U 19071C   21321.44756763  .00005947  00000+0  16901-3 0  9997
2 45113  51.6424  14.9018 0011418 123.1341 237.0740 15.37560169100693
HUSKYSAT-1 (HO-107)     
1 45119U 19071J   21321.33187492  .00004749  00000+0  13766-3 0  9993
2 45119  51.6426  14.8686 0010982 119.1603 241.0481 15.37443010100672
BY70-2                  
1 45857U 20042B   21321.24972529  .00001755  00000+0  25270-3 0  9992
2 45857  97.9745  35.3783 0012228  85.1482 275.1136 14.77570699 74106
SALSAT                  
1 46495U 20068K   21321.59517821 -.00000215  00000+0 -11128-4 0  9997
2 46495  97.7050 258.2823 0015327 277.0580  82.8903 15.03658025 62345
BY70-3                  
1 46839U 20079N   21321.65589039  .00004742  00000+0  14080-3 0  9994
2 46839  97.2269  32.4819 0007624  28.8589 127.0971 15.35238445 57697
RADFXSAT-2 (AO-109)     
1 47311U 21002C   21321.36340571  .00002765  00000+0  12852-3 0  9999
2 47311  60.6859  78.5163 0037074 125.5841 234.8711 15.22407876 46142
UVSQ-SAT                
1 47438U 21006AB  21321.38490743  .00001578  00000+0  91374-4 0  9990
2 47438  97.4695  19.7550 0011083 292.6069  67.3990 15.13635913 45181
DIY-1 (ARDUIQUBE)       
1 47963U 21022AH  21321.20804645  .00004763  00000+0  30926-3 0  9996
2 47963  97.5457 220.8053 0019852 138.1612 222.1138 15.08358535 34914
